*******************************************************************************
Ephemeris / WWW_USER Tue Mar 27 20:33:42 2018 Pasadena, USA      / Horizons    
*******************************************************************************
Target body name: Pluto Barycenter (9)            {source: de433}
Center body name: Solar System Barycenter (0)     {source: DE431mx}
Center-site name: BODY CENTER
*******************************************************************************
Start time      : A.D. 2000-Jan-01 00:00:00.0000 TDB
Stop  time      : A.D. 2005-Jan-01 00:00:00.0000 TDB
Step-size       : 7200 minutes
*******************************************************************************
Center geodetic : 0.00000000,0.00000000,0.0000000 {E-lon(deg),Lat(deg),Alt(km)}
Center cylindric: 0.00000000,0.00000000,0.0000000 {E-lon(deg),Dxy(km),Dz(km)}
Center radii    : (undefined)                                                  
Output units    : AU-D                                                         
Output type     : GEOMETRIC cartesian states
Output format   : 2 (position and velocity)
Reference frame : ICRF/J2000.0                                                 
Coordinate systm: Ecliptic and Mean Equinox of Reference Epoch                 
*******************************************************************************
JDTDB
   X     Y     Z
   VX    VY    VZ
*******************************************************************************
$$SOE
2451544.500000000 = A.D. 2000-Jan-01 00:00:00.0000 TDB 
  -9.884006624827977E+00 -2.796082078222821E+01  5.851008751135812E+00
   3.034076180191188E-03 -1.545343560796942E-03 -7.122658652086844E-04
2451549.500000000 = A.D. 2000-Jan-06 00:00:00.0000 TDB 
  -9.868834919398504E+00 -2.796854375045866E+01  5.847446637359324E+00
   3.034605842989781E-03 -1.543843699380704E-03 -7.125796058243729E-04
2451554.500000000 = A.D. 2000-Jan-11 00:00:00.0000 TDB 
  -9.853660567884150E+00 -2.797625921890262E+01  5.843882955473251E+00
   3.035134614146159E-03 -1.542343646321799E-03 -7.128931090305470E-04
2451559.500000000 = A.D. 2000-Jan-16 00:00:00.0000 TDB 
  -9.838483574743071E+00 -2.798396718660375E+01  5.840317706664831E+00
   3.035662493684355E-03 -1.540843402382402E-03 -7.132063747497107E-04
2451564.500000000 = A.D. 2000-Jan-21 00:00:00.0000 TDB 
  -9.823303944433297E+00 -2.799166765260957E+01  5.836750892121696E+00
   3.036189481629086E-03 -1.539342968324530E-03 -7.135194029045357E-04
2451569.500000000 = A.D. 2000-Jan-26 00:00:00.0000 TDB 
  -9.808121681412727E+00 -2.799936061597140E+01  5.833182513031854E+00
   3.036715578005733E-03 -1.537842344910161E-03 -7.138321934178682E-04
2451574.500000000 = A.D. 2000-Jan-31 00:00:00.0000 TDB 
  -9.792936790139141E+00 -2.800704607574435E+01  5.829612570583714E+00
   3.037240782840440E-03 -1.536341532901542E-03 -7.141447462130172E-04
2451579.500000000 = A.D. 2000-Feb-05 00:00:00.0000 TDB 
  -9.777749275070182E+00 -2.801472403098736E+01  5.826041065966050E+00
   3.037765096159954E-03 -1.534840533060300E-03 -7.144570612133206E-04
2451584.500000000 = A.D. 2000-Feb-10 00:00:00.0000 TDB 
  -9.762559140663354E+00 -2.802239448076316E+01  5.822468000368031E+00
   3.038288517991483E-03 -1.533339346148403E-03 -7.147691383421774E-04
2451589.500000000 = A.D. 2000-Feb-15 00:00:00.0000 TDB 
  -9.747366391376033E+00 -2.803005742413833E+01  5.818893374979208E+00
   3.038811048362867E-03 -1.531837972927603E-03 -7.150809775232415E-04
2451594.500000000 = A.D. 2000-Feb-20 00:00:00.0000 TDB 
  -9.732171031665446E+00 -2.803771286018319E+01  5.815317190989506E+00
   3.039332687302578E-03 -1.530336414159436E-03 -7.153925786804187E-04
2451599.500000000 = A.D. 2000-Feb-25 00:00:00.0000 TDB 
  -9.716973065988679E+00 -2.804536078797194E+01  5.811739449589235E+00
   3.039853434839717E-03 -1.528834670605225E-03 -7.157039417378695E-04
2451604.500000000 = A.D. 2000-Mar-01 00:00:00.0000 TDB 
  -9.701772498802672E+00 -2.805300120658255E+01  5.808160151969088E+00
   3.040373291004045E-03 -1.527332743026045E-03 -7.160150666199026E-04
2451609.500000000 = A.D. 2000-Mar-06 00:00:00.0000 TDB 
  -9.686569334564210E+00 -2.806063411509676E+01  5.804579299320122E+00
   3.040892255826037E-03 -1.525830632183087E-03 -7.163259532510772E-04
2451614.500000000 = A.D. 2000-Mar-11 00:00:00.0000 TDB 
  -9.671363577729931E+00 -2.806825951260020E+01  5.800996892833786E+00
   3.041410329336740E-03 -1.524328338836997E-03 -7.166366015561854E-04
2451619.500000000 = A.D. 2000-Mar-16 00:00:00.0000 TDB 
  -9.656155232756307E+00 -2.807587739818223E+01  5.797412933701894E+00
   3.041927511567973E-03 -1.522825863748186E-03 -7.169470114602815E-04
2451624.500000000 = A.D. 2000-Mar-21 00:00:00.0000 TDB 
  -9.640944304099662E+00 -2.808348777093604E+01  5.793827423116641E+00
   3.042443802552331E-03 -1.521323207676879E-03 -7.172571828887025E-04
2451629.500000000 = A.D. 2000-Mar-26 00:00:00.0000 TDB 
  -9.625730796216141E+00 -2.809109062995863E+01  5.790240362270592E+00
   3.042959202323189E-03 -1.519820371383107E-03 -7.175671157670652E-04
2451634.500000000 = A.D. 2000-Mar-31 00:00:00.0000 TDB 
  -9.610514713561727E+00 -2.809868597435078E+01  5.786651752356678E+00
   3.043473710914677E-03 -1.518317355626733E-03 -7.178768100212018E-04
2451639.500000000 = A.D. 2000-Apr-05 00:00:00.0000 TDB 
  -9.595296060592235E+00 -2.810627380321706E+01  5.783061594568211E+00
   3.043987328361160E-03 -1.516814161168082E-03 -7.181862655768008E-04
2451644.500000000 = A.D. 2000-Apr-10 00:00:00.0000 TDB 
  -9.580074841763299E+00 -2.811385411566588E+01  5.779469890098865E+00
   3.044500054698178E-03 -1.515310788766796E-03 -7.184954823600832E-04
2451649.500000000 = A.D. 2000-Apr-15 00:00:00.0000 TDB 
  -9.564851061530375E+00 -2.812142691080943E+01  5.775876640142688E+00
   3.045011889962083E-03 -1.513807239182275E-03 -7.188044602975143E-04
2451654.500000000 = A.D. 2000-Apr-20 00:00:00.0000 TDB 
  -9.549624724348739E+00 -2.812899218776366E+01  5.772281845894088E+00
   3.045522834189808E-03 -1.512303513173986E-03 -7.191131993157295E-04
2451659.500000000 = A.D. 2000-Apr-25 00:00:00.0000 TDB 
  -9.534395834673475E+00 -2.813654994564839E+01  5.768685508547849E+00
   3.046032887418870E-03 -1.510799611501467E-03 -7.194216993415337E-04
2451664.500000000 = A.D. 2000-Apr-30 00:00:00.0000 TDB 
  -9.519164396959482E+00 -2.814410018358717E+01  5.765087629299114E+00
   3.046542049687364E-03 -1.509295534924324E-03 -7.197299603019019E-04
2451669.500000000 = A.D. 2000-May-05 00:00:00.0000 TDB 
  -9.503930415661470E+00 -2.815164290070739E+01  5.761488209343395E+00
   3.047050321034343E-03 -1.507791284201836E-03 -7.200379821239517E-04
2451674.500000000 = A.D. 2000-May-10 00:00:00.0000 TDB 
  -9.488693895233943E+00 -2.815917809614022E+01  5.757887249876561E+00
   3.047557701499620E-03 -1.506286860093447E-03 -7.203457647349015E-04
2451679.500000000 = A.D. 2000-May-15 00:00:00.0000 TDB 
  -9.473454840131209E+00 -2.816670576902061E+01  5.754284752094851E+00
   3.048064191123157E-03 -1.504782263358683E-03 -7.206533080622704E-04
2451684.500000000 = A.D. 2000-May-20 00:00:00.0000 TDB 
  -9.458213254807379E+00 -2.817422591848736E+01  5.750680717194864E+00
   3.048569789945521E-03 -1.503277494756945E-03 -7.209606120337237E-04
2451689.500000000 = A.D. 2000-May-25 00:00:00.0000 TDB 
  -9.442969143716356E+00 -2.818173854368300E+01  5.747075146373561E+00
   3.049074498007882E-03 -1.501772555047510E-03 -7.212676765770777E-04
2451694.500000000 = A.D. 2000-May-30 00:00:00.0000 TDB 
  -9.427722511311831E+00 -2.818924364375392E+01  5.743468040828260E+00
   3.049578315352020E-03 -1.500267444989527E-03 -7.215745016202959E-04
2451699.500000000 = A.D. 2000-Jun-04 00:00:00.0000 TDB 
  -9.412473362047294E+00 -2.819674121785025E+01  5.739859401756645E+00
   3.050081242020340E-03 -1.498762165341976E-03 -7.218810870915664E-04
2451704.500000000 = A.D. 2000-Jun-09 00:00:00.0000 TDB 
  -9.397221700376017E+00 -2.820423126512596E+01  5.736249230356751E+00
   3.050583278055674E-03 -1.497256716863703E-03 -7.221874329194148E-04
2451709.500000000 = A.D. 2000-Jun-14 00:00:00.0000 TDB 
  -9.381967530751055E+00 -2.821171378473877E+01  5.732637527826975E+00
   3.051084423501404E-03 -1.495751100313427E-03 -7.224935390323880E-04
2451714.500000000 = A.D. 2000-Jun-19 00:00:00.0000 TDB 
  -9.366710857625245E+00 -2.821918877585023E+01  5.729024295366070E+00
   3.051584678401533E-03 -1.494245316449564E-03 -7.227994053592998E-04
2451719.500000000 = A.D. 2000-Jun-24 00:00:00.0000 TDB 
  -9.351451685451206E+00 -2.822665623762568E+01  5.725409534173146E+00
   3.052084042800653E-03 -1.492739366030237E-03 -7.231050318292534E-04
2451724.500000000 = A.D. 2000-Jun-29 00:00:00.0000 TDB 
  -9.336190018681332E+00 -2.823411616923421E+01  5.721793245447658E+00
   3.052582516743947E-03 -1.491233249813273E-03 -7.234104183716388E-04
2451729.500000000 = A.D. 2000-Jul-04 00:00:00.0000 TDB 
  -9.320925861767783E+00 -2.824156856984874E+01  5.718175430389425E+00
   3.053080100277115E-03 -1.489726968556202E-03 -7.237155649161351E-04
2451734.500000000 = A.D. 2000-Jul-09 00:00:00.0000 TDB 
  -9.305659219162500E+00 -2.824901343864596E+01  5.714556090198609E+00
   3.053576793446503E-03 -1.488220523016339E-03 -7.240204713923585E-04
2451739.500000000 = A.D. 2000-Jul-14 00:00:00.0000 TDB 
  -9.290390095317180E+00 -2.825645077480636E+01  5.710935226075731E+00
   3.054072596299355E-03 -1.486713913950532E-03 -7.243251377304133E-04
2451744.500000000 = A.D. 2000-Jul-19 00:00:00.0000 TDB 
  -9.275118494683289E+00 -2.826388057751418E+01  5.707312839221653E+00
   3.054567508883287E-03 -1.485207142115195E-03 -7.246295638608740E-04
2451749.500000000 = A.D. 2000-Jul-24 00:00:00.0000 TDB 
  -9.259844421712048E+00 -2.827130284595749E+01  5.703688930837584E+00
   3.055061531246771E-03 -1.483700208266452E-03 -7.249337497144799E-04
